[{"OBJECT_NAME":"STARLINK-5228","OBJECT_ID":"2022-141Z","EPOCH":"2026-03-09T22:00:01.999584","MEAN_MOTION":15.24334038,"ECCENTRICITY":0.00015239,"INCLINATION":53.2168,"RA_OF_ASC_NODE":2.2067,"ARG_OF_PERICENTER":88.3857,"MEAN_ANOMALY":310.0088,"EPHEMERIS_TYPE":0,"CLASSIFICATION_TYPE":"U","NORAD_CAT_ID":54180,"ELEMENT_SET_NO":999,"REV_AT_EPOCH":574,"BSTAR":0.0018120877,"MEAN_MOTION_DOT":0.0004484,"MEAN_MOTION_DDOT":0},{"OBJECT_NAME":"OBJECT B","OBJECT_ID":"2025-197B","EPOCH":"2026-03-09T22:54:10.410624","MEAN_MOTION":15.22275825,"ECCENTRICITY":0.00134905,"INCLINATION":97.4108,"RA_OF_ASC_NODE":256.8193,"ARG_OF_PERICENTER":3.3415,"MEAN_ANOMALY":356.7909,"EPHEMERIS_TYPE":0,"CLASSIFICATION_TYPE":"U","NORAD_CAT_ID":65489,"ELEMENT_SET_NO":999,"REV_AT_EPOCH":2819,"BSTAR":0.0002890926,"MEAN_MOTION_DOT":6.601e-5,"MEAN_MOTION_DDOT":0}]
